#cP2021  8 19  0  0  0.00000000      96 ORBIT IGb14 HLM  IGS
## 2171 345600.00000000   900.00000000 59445 0.0000000000000
+   31   G01G02G03G04G05G06G07G08G09G10G12G13G14G15G16G17G18
+        G19G20G21G22G23G24G25G26G27G28G29G30G31G32  0  0  0
+          0  0  0  0  0  0  0  0  0  0  0  0  0  0  0  0  0
+          0  0  0  0  0  0  0  0  0  0  0  0  0  0  0  0  0
+          0  0  0  0  0  0  0  0  0  0  0  0  0  0  0  0  0
++         1  1  2  2  1  1  1  3  2  1  1  1  2  2  2  2  2
++         2  1  2  2  2  1  1  1  2  2  2  1  1  2  0  0  0
++         0  0  0  0  0  0  0  0  0  0  0  0  0  0  0  0  0
++         0  0  0  0  0  0  0  0  0  0  0  0  0  0  0  0  0
++         0  0  0  0  0  0  0  0  0  0  0  0  0  0  0  0  0
%c G  cc GPS ccc cccc cccc cccc cccc ccccc ccccc ccccc ccccc
%c cc cc ccc ccc cccc cccc cccc cccc ccccc ccccc ccccc ccccc
%f  1.2500000  1.025000000  0.00000000000  0.000000000000000
%f  0.0000000  0.000000000  0.00000000000  0.000000000000000
%i    0    0    0    0      0      0      0      0         0
%i    0    0    0    0      0      0      0      0         0
/* FINAL ORBIT COMBINATION FROM WEIGHTED AVERAGE OF:        
/* cod emr esa gfz grg jpl mit ngs sio                      
/* REFERENCED TO IGS TIME (IGST) AND TO WEIGHTED MEAN POLE: 
/* PCV:IGS14_2163 OL/AL:FES2004  NONE     Y  ORB:CMB CLK:CMB
*  2021  8 19  4 30  0.00000000
PG01 -14646.130268 -13409.321851 -18077.977438    593.377803  5  5  3  76       
PG02 -10557.079259  14172.140279  20503.972520   -627.196007  5  4  3  70       
PG03 -12135.439078 -23652.703846   1287.316689   -259.188442  4  5  6  47       
PG04  -6199.901275 -15677.736845  20514.050446   -204.005692  8  5  6 121       
PG05   4419.524316  23992.112170  10131.238956    -51.579433  3  3  2  67       
PG06 -21869.293395   7087.692962  13406.740418     58.513043  5  3  3  91       
PG07 -25183.922181  -6910.481722   6488.236482    227.943804  3  4  3  65       
PG08   2773.056954 -22031.994429 -14348.262171    -33.190657  8  9  7  70       
PG09 -15091.109761  -4603.103611  21304.928940   -359.160854  6  5  4  87       
PG10  15795.395849   -696.442671 -21267.766403   -185.398987     2  6  80       
PG12  10166.015160  24591.425946    874.287863    -84.938568  2  4  4  40       
PG13 -11356.748305  22072.827694  -9380.320321    173.314906  4  5  5 108       
PG14 -15888.471326    960.992956 -21270.777051     20.584190  3  4  5  93       
PG15    537.779345  22263.220898 -14593.487529   -127.360166  5  2  4  85       
PG16   2424.028541 -21830.447321  14352.076163   -376.081217  7  3  1  72       
PG17 -19731.657346   8934.533192 -14946.531899    491.549940  4  3  4  83       
PG18  25802.254408   5278.142893   3771.262162    331.426105  2  3  5  53       
PG19 -20245.636759  15172.625446  -8098.184293     41.503084  5  2  2  74       
PG20  -4143.097604  18441.323635  18728.861883    519.580563  2  4  3  81       
PG21  -6895.754016 -14504.942604 -20552.164490    138.016640  6  7  3  81       
PG22  -9307.750062 -24175.636557  -6152.430788   -534.735334  6  6  6  75       
PG23  18063.656714  11049.438045 -16098.037399     68.922406  4  5  5  89       
PG24  10270.314133  14798.421860 -19892.096923    212.386922  5  2  4  79       
PG25  16498.331478  18256.862440  10072.506971    193.590370  4  4  5 118       
PG26  10063.379490 -13161.226322  20649.657131    124.291206  5  4  2  77       
PG27  11211.536462 -23177.895890  -5855.562345   -180.395518  8  7  5 105       
PG28 -12813.158264   7626.219915 -21448.040790    517.262874  4  6  5  75       
PG29  12778.450113   7480.972776  22004.630566   -398.423138  4  4  4  84       
PG30 -26038.223151   1393.547794  -5606.530261   -463.743154  2  5  5  71       
PG31  20943.758728  -8045.872575  14476.064011   -135.052159  3  4  2  81       
PG32  19448.723247 -12302.086339 -12992.339338      6.651235  5  4  6  84       
*  2021  8 19  4 45  0.00000000
PG01 -12556.323058 -13360.205359 -19614.457340    593.367734  5  5  3  71       
PG02 -12703.716232  14134.488329  19238.157965   -627.197853  4  4  3  47       
PG03 -11937.317679 -23747.616453  -1581.239290   -259.200252  4  5  6  81       
PG04  -4812.806083 -17494.178498  19380.650051   -204.005975  8  5  6 125       
PG05   3559.771195  22952.883572  12563.142411    -51.580627  3  4  2  59       
PG06 -23242.190883   6864.979819  10989.312279     58.518902  6  3  4  81       
PG07 -24335.095539  -7084.654635   9109.186886    227.951075  3  4  2  71       
PG08   3749.942569 -23213.385599 -12053.159753    -33.191540  8  9  7  92       
PG09 -13812.790531  -6717.793046  21605.026259   -359.161709  6  5  3  82       
PG10  16846.667652   1464.193166 -20434.480037   -185.406073     2  6  82       
PG12   9957.099999  24640.413498  -1996.069425    -84.943439  2  4  4  64       
PG13 -12115.398824  22616.793833  -6702.657508    173.319470  4  5  5 110       
PG14 -16825.227202  -1240.670649 -20527.190096     20.576503  3  5  4  94       
PG15   -374.354000  23497.657147 -12415.739101   -127.357626  4  3  4  71       
PG16   3278.913576 -20219.100102  16404.588786   -376.086999  7  4  1  76       
PG17 -18728.503174   7324.265059 -16924.943824    491.555291  4  3  4  79       
PG18  25197.642774   5456.250277   6556.486799    331.422838  1  4  5  44       
PG19 -19734.964985  14244.042070 -10724.378600     41.507413  4  2  2  56       
PG20  -5536.454074  16712.205504  19926.930633    519.580159  3  3  3  72       
PG21  -4373.069739 -14609.058258 -21096.257944    138.018609  6  7  3  76       
PG22  -8586.281232 -23603.055439  -8770.041425   -534.726755  6  6  6  83       
PG23  18737.420810  12637.618056 -14029.033641     68.917864  4  5  4  81       
PG24   7996.319214  14935.918799 -20788.146850    212.396570  5  2  4  55       
PG25  16773.583585  19274.316033   7476.907324    193.596187  4  4  5 117       
PG26  11330.668770 -11100.060741  21219.785876    124.295178  4  3  3  74       
PG27  11675.033086 -23463.774191  -3008.902694   -180.400395  8  7  6  96       
PG28 -13771.088548   5235.274501 -21551.208033    517.256647  4  6  5  79       
PG29  11258.618532   9497.305314  22051.174754   -398.428406  5  4  3  91       
PG30 -26506.235954   1057.551560  -2869.693291   -463.746838  2  5  5  56       
PG31  22453.997184  -7746.573314  12258.371584   -135.054182  3  4  3  78       
PG32  18752.813489 -10806.703014 -15161.833070      6.648677  5  4  6  91       
*  2021  8 19  5  0  0.00000000
PG01 -10312.506213 -13430.551055 -20824.174028    593.357648  5  5  2  94       
PG02 -14695.816705  14198.907756  17658.649215   -627.200103  5  4  3  50       
PG03 -11581.240234 -23574.909901  -4422.793071   -259.212046  5  5  6  82       
PG04  -3598.505057 -19255.050837  17913.312751   -204.006231  8  6  6 121       
PG05   2504.641938  21735.856971  14775.061510    -51.581565  2  4  1  69       
PG06 -24341.203190   6716.633030   8383.812737     58.524769  6  3  4  71       
PG07 -23214.439601  -7301.661621  11579.771829    227.957910  4  5  2  74       
PG08   4534.562394 -24204.193994  -9547.406724    -33.192490  8  9  7  88       
PG09 -12637.358602  -8906.240300  21531.200507   -359.162576  6  5  3  86       
PG10  17952.439083   3464.054277 -19248.128969   -185.413091     3  5  86       
PG12   9609.348424  24411.693744  -4832.441165    -84.948307  2  4  4  59       
PG13 -12658.608517  22952.044679  -3909.102162    173.323963  4  6  5 108       
PG14 -17824.822827  -3299.064850 -19430.799372     20.568863  3  6  4  94       
PG15  -1132.060096  24538.867959 -10024.792386   -127.355030  4  4  4  73       
PG16   4311.019158 -18457.608980  18164.457828   -376.092577  7  5  2  70       
PG17 -17699.914966   5481.798063 -18602.835205    491.560607  3  3  4  82       
PG18  24294.585829   5663.340563   9229.396483    331.419595  1  5  6  64       
PG19 -19109.526273  13057.597328 -13166.777317     41.511817  4  2  3  64       
PG20  -7087.251346  14961.544383  20783.256935    519.579519  3  3  3  86       
PG21  -1811.450939 -14842.865623 -21254.818653    138.020707  6  7  3  71       
PG22  -7666.427765 -22835.142753 -11237.428070   -534.718548  6  6  6  83       
PG23  19362.893659  13978.021848 -11719.699919     68.913357  4  6  4  76       
PG24   5648.729898  15191.411149 -21336.649894    212.406327  5  3  4  81       
PG25  16949.524848  20015.239782   4753.493251    193.602058  4  4  5 113       
PG26  12719.015783  -9068.480394  21422.011234    124.299091  4  4  3  55       
PG27  11963.069783 -23487.328019   -109.413884   -180.405277  8  7  6  64       
PG28 -14848.688738   2905.673328 -21263.907362    517.250349  4  6  5  90       
PG29   9861.866325  11581.791432  21716.495879   -398.433409  5  4  3  97       
PG30 -26679.997730    750.301192    -84.127735   -463.750529  3  5  4  77       
PG31  23715.013230  -7531.751299   9833.659197   -135.055950  3  4  3  80       
PG32  18021.622342  -9074.972214 -17066.420339      6.645989  5  4  6  92       
EOF
